NORAD_CAT_ID,OBJECT_NAME,OBJECT_TYPE,EPOCH,MEAN_MOTION,ECCENTRICITY,INCLINATION,RA_OF_ASC_NODE,ARG_OF_PERICENTER,MEAN_ANOMALY,BSTAR,MEAN_MOTION_DOT,MEAN_MOTION_DDOT,TLE_LINE0,TLE_LINE1,TLE_LINE2,SEMIMAJOR_AXIS,PERIOD,APOGEE,PERIGEE,DECAYED
53536.0,STARLINK-4053,PAYLOAD,2024-03-13 07:32:57,15.08836208,0.0001301,53.2168,84.8678,89.5967,270.5174,0.00012644,1.725e-05,0.0,0 STARLINK-4053,1 53536U 22101K   24073.31455225  .00001725  00000-0  12644-3 0  9996,2 53536  53.2168  84.8678 0001301  89.5967 270.5174 15.08836208 86640,6917.892,95.438,540.657,538.857,0.0
53536.0,STARLINK-4053,PAYLOAD,2024-03-13 17:05:15,15.08848185,0.0001393,53.2173,83.084,89.334,270.7811,8.9368e-05,1.135e-05,0.0,0 STARLINK-4053,1 53536U 22101K   24073.71198539  .00001135  00000-0  89368-4 0  9995,2 53536  53.2173  83.0840 0001393  89.3340 270.7811 15.08848185 86706,6917.855,95.437,540.684,538.757,0.0
53536.0,STARLINK-4053,PAYLOAD,2024-03-14 04:12:58,15.08831597,0.0001406,53.217,81.0023,92.3418,267.7735,6.6279e-05,7.67e-06,0.0,0 STARLINK-4053,1 53536U 22101K   24074.17567833  .00000767  00000-0  66279-4 0  9999,2 53536  53.2170  81.0023 0001406  92.3418 267.7735 15.08831597 86776,6917.906,95.438,540.744,538.798,0.0
53536.0,STARLINK-4053,PAYLOAD,2024-03-14 07:23:44,15.08835953,0.0001447,53.2171,80.408,96.07,264.0457,9.7004e-05,1.256e-05,0.0,0 STARLINK-4053,1 53536U 22101K   24074.30815567  .00001256  00000-0  97004-4 0  9998,2 53536  53.2171  80.4080 0001447  96.0700 264.0457 15.08835953 86796,6917.893,95.438,540.759,538.757,0.0
53536.0,STARLINK-4053,PAYLOAD,2024-03-15 05:39:08,15.08836789,0.0001422,53.2174,76.2456,98.4298,261.6855,6.5151e-05,7.49e-06,0.0,0 STARLINK-4053,1 53536U 22101K   24075.23551788  .00000749  00000-0  65151-4 0  9997,2 53536  53.2174  76.2456 0001422  98.4298 261.6855 15.08836789 86939,6917.89,95.438,540.739,538.771,0.0
53536.0,STARLINK-4053,PAYLOAD,2024-03-16 08:40:42,15.08839286,0.0001327,53.2168,71.1881,92.4669,267.6475,0.0001101,1.465e-05,0.0,0 STARLINK-4053,1 53536U 22101K   24076.36159819  .00001465  00000-0  11010-3 0  9991,2 53536  53.2168  71.1881 0001327  92.4669 267.6475 15.08839286 87107,6917.883,95.438,540.666,538.83,0.0
53536.0,STARLINK-4053,PAYLOAD,2024-03-17 08:31:29,15.08840956,0.0001448,53.2177,66.7251,91.9143,268.2015,0.00012572,1.713e-05,0.0,0 STARLINK-4053,1 53536U 22101K   24077.35519907  .00001713  00000-0  12572-3 0  9999,2 53536  53.2177  66.7251 0001448  91.9143 268.2015 15.08840956 87252,6917.877,95.437,540.744,538.741,0.0
53536.0,STARLINK-4053,PAYLOAD,2024-03-18 05:11:30,15.08840815,0.0001561,53.2186,62.8589,85.7766,274.3404,8.8911e-05,1.127e-05,0.0,0 STARLINK-4053,1 53536U 22101K   24078.21632079  .00001127  00000-0  88911-4 0  9991,2 53536  53.2186  62.8589 0001561  85.7766 274.3404 15.08840815 87389,6917.878,95.438,540.823,538.663,0.0
53536.0,STARLINK-4053,PAYLOAD,2024-03-18 22:40:44,15.08843472,0.0001442,53.2178,59.591,104.766,255.3492,8.0967e-05,1.001e-05,0.0,0 STARLINK-4053,1 53536U 22101K   24078.94495853  .00001001  00000-0  80967-4 0  9992,2 53536  53.2178  59.5910 0001442 104.7660 255.3492 15.08843472 87494,6917.87,95.437,540.732,538.737,0.0
53536.0,STARLINK-4053,PAYLOAD,2024-03-19 05:02:16,15.08845272,0.0001437,53.218,58.4016,104.1321,255.9831,8.9482e-05,1.137e-05,0.0,0 STARLINK-4053,1 53536U 22101K   24079.20991745  .00001137  00000-0  89482-4 0  9994,2 53536  53.2180  58.4016 0001437 104.1321 255.9831 15.08845272 87532,6917.864,95.437,540.723,538.735,0.0
53536.0,STARLINK-4053,PAYLOAD,2024-03-20 01:42:17,15.08844749,0.0001539,53.2177,54.5355,114.1693,245.946,0.00014096,1.956e-05,0.0,0 STARLINK-4053,1 53536U 22101K   24080.07103655  .00001956  00000-0  14096-3 0  9993,2 53536  53.2177  54.5355 0001539 114.1693 245.9460 15.08844749 87666,6917.866,95.437,540.796,538.666,0.0
53536.0,STARLINK-4053,PAYLOAD,2024-03-20 08:03:49,15.0884627,0.0001376,53.2178,53.3455,112.8175,247.2962,0.0001137,1.522e-05,0.0,0 STARLINK-4053,1 53536U 22101K   24080.33599374  .00001522  00000-0  11370-3 0  9990,2 53536  53.2178  53.3455 0001376 112.8175 247.2962 15.08846270 87702,6917.861,95.437,540.678,538.774,0.0
53536.0,STARLINK-4053,PAYLOAD,2024-03-21 04:43:51,15.08836175,0.0001197,53.2171,49.4793,86.0459,274.067,-9.3554e-06,-4.37e-06,0.0,0 STARLINK-4053,1 53536U 22101K   24081.19712436 -.00000437  00000-0 -93554-5 0  9993,2 53536  53.2171  49.4793 0001197  86.0459 274.0670 15.08836175 87835,6917.892,95.438,540.585,538.929,0.0
53536.0,STARLINK-4053,PAYLOAD,2024-03-21 14:16:09,15.08845326,0.0001307,53.2189,47.6977,102.2275,257.8864,6.9339e-05,8.16e-06,0.0,0 STARLINK-4053,1 53536U 22101K   24081.59455630  .00000816  00000-0  69339-4 0  9999,2 53536  53.2189  47.6977 0001307 102.2275 257.8864 15.08845326 87896,6917.864,95.437,540.633,538.825,0.0
53536.0,STARLINK-4053,PAYLOAD,2024-03-22 04:34:38,15.08839029,0.0001736,53.22,45.0237,101.6452,258.4735,7.5159e-05,9.08e-06,0.0,0 STARLINK-4053,1 53536U 22101K   24082.19072233  .00000908  00000-0  75159-4 0  9999,2 53536  53.2200  45.0237 0001736 101.6452 258.4735 15.08839029 87984,6917.883,95.438,540.949,538.547,0.0
53536.0,STARLINK-4053,PAYLOAD,2024-03-23 01:14:39,15.0883039,0.0001546,53.2182,41.1537,119.5009,240.6137,5.1136e-05,5.26e-06,0.0,0 STARLINK-4053,1 53536U 22101K   24083.05185001  .00000526  00000-0  51136-4 0  9998,2 53536  53.2182  41.1537 0001546 119.5009 240.6137 15.08830390 88115,6917.91,95.438,540.844,538.705,0.0
53536.0,STARLINK-4053,PAYLOAD,2024-03-23 06:00:49,15.08825043,0.0001296,53.2177,40.2617,114.091,246.0217,-1.1837e-05,-4.76e-06,0.0,0 STARLINK-4053,1 53536U 22101K   24083.25057776 -.00000476  00000-0 -11837-4 0  9997,2 53536  53.2177  40.2617 0001296 114.0910 246.0217 15.08825043 88142,6917.926,95.439,540.688,538.895,0.0
53536.0,STARLINK-4053,PAYLOAD,2024-03-24 05:51:36,15.0883324,0.0001171,53.2181,35.7997,122.5316,237.579,-8.327e-05,-1.613e-05,0.0,0 STARLINK-4053,1 53536U 22101K   24084.24417818 -.00001613  00000-0 -83270-4 0  9998,2 53536  53.2181  35.7997 0001171 122.5316 237.5790 15.08833240 88298,6917.901,95.438,540.576,538.956,0.0
53536.0,STARLINK-4053,PAYLOAD,2024-03-24 20:10:05,15.08825383,0.000113,53.2176,33.1245,125.3143,234.7954,0.00013896,1.924e-05,0.0,0 STARLINK-4053,1 53536U 22101K   24084.84034466  .00001924  00000-0  13896-3 0  9997,2 53536  53.2176  33.1245 0001130 125.3143 234.7954 15.08825383 88384,6917.925,95.438,540.572,539.008,0.0
53536.0,STARLINK-4053,PAYLOAD,2024-03-25 04:07:00,15.08846931,0.0001244,53.2183,31.6417,108.9585,251.1542,0.00029184,4.361e-05,0.0,0 STARLINK-4053,1 53536U 22101K   24085.17152874  .00004361  00000-0  29184-3 0  9993,2 53536  53.2183  31.6417 0001244 108.9585 251.1542 15.08846931 88433,6917.859,95.437,540.585,538.864,0.0
53536.0,STARLINK-4053,PAYLOAD,2024-03-25 13:39:17,15.08869434,0.0001032,53.2185,29.8545,96.8498,263.2612,0.00035081,5.304e-05,0.0,0 STARLINK-4053,1 53536U 22101K   24085.56894861  .00005304  00000-0  35081-3 0  9996,2 53536  53.2185  29.8545 0001032  96.8498 263.2612 15.08869434 88490,6917.79,95.436,540.369,538.942,0.0
53536.0,STARLINK-4053,PAYLOAD,2024-03-26 02:22:26,15.08807221,0.0001171,53.2188,27.4758,97.4418,262.6707,-6.0393e-05,-1.248e-05,0.0,0 STARLINK-4053,1 53536U 22101K   24086.09892351 -.00001248  00000-0 -60393-4 0  9997,2 53536  53.2188  27.4758 0001171  97.4418 262.6707 15.08807221 88579,6917.981,95.44,540.656,539.035,0.0
53536.0,STARLINK-4053,PAYLOAD,2024-03-26 13:30:07,15.08828148,9.08e-05,53.2183,25.3967,103.7463,256.363,7.0007e-05,8.26e-06,0.0,0 STARLINK-4053,1 53536U 22101K   24086.56259152  .00000826  00000-0  70007-4 0  9997,2 53536  53.2183  25.3967 0000908 103.7463 256.3630 15.08828148 88645,6917.917,95.438,540.41,539.153,0.0
53536.0,STARLINK-4053,PAYLOAD,2024-03-26 23:02:25,15.08846133,6.12e-05,53.2196,23.6137,77.9591,282.1469,-1.4115e-05,-5.12e-06,0.0,0 STARLINK-4053,1 53536U 22101K   24086.96002303 -.00000512  00000-0 -14115-4 0  9997,2 53536  53.2196  23.6137 0000612  77.9591 282.1469 15.08846133 88703,6917.862,95.437,540.15,539.303,0.0
53536.0,STARLINK-4053,PAYLOAD,2024-03-27 02:13:11,15.08862548,0.0001328,53.2187,23.0157,96.1941,263.9202,6.8302e-05,8e-06,0.0,0 STARLINK-4053,1 53536U 22101K   24087.09249017  .00000800  00000-0  68302-4 0  9992,2 53536  53.2187  23.0157 0001328  96.1941 263.9202 15.08862548 88728,6917.811,95.436,540.595,538.758,0.0
53536.0,STARLINK-4053,PAYLOAD,2024-03-27 19:42:25,15.08837368,0.000143,53.2198,19.7431,91.4849,268.6307,0.00039067,5.935e-05,0.0,0 STARLINK-4053,1 53536U 22101K   24087.82112790  .00005935  00000-0  39067-3 0  9999,2 53536  53.2198  19.7431 0001430  91.4849 268.6307 15.08837368 88838,6917.888,95.438,540.743,538.764,0.0
53536.0,STARLINK-4053,PAYLOAD,2024-03-28 05:14:45,15.08833917,0.0001247,53.2192,17.9591,87.1396,272.9739,0.00017533,2.503e-05,0.0,0 STARLINK-4053,1 53536U 22101K   24088.21857988  .00002503  00000-0  17533-3 0  9990,2 53536  53.2192  17.9591 0001247  87.1396 272.9739 15.08833917 88893,6917.899,95.438,540.627,538.901,0.0
53536.0,STARLINK-4053,PAYLOAD,2024-03-28 22:43:59,15.08849571,0.0001524,53.2199,14.689,93.0794,267.0372,-0.00014002,-2.516e-05,0.0,0 STARLINK-4053,1 53536U 22101K   24088.94721745 -.00002516  00000-0 -14002-3 0  9995,2 53536  53.2199  14.6890 0001524  93.0794 267.0372 15.08849571 89007,6917.851,95.437,540.77,538.662,0.0
53536.0,STARLINK-4053,PAYLOAD,2024-03-29 11:27:03,15.08861675,0.0001266,53.219,12.3132,88.2567,271.857,-3.6954e-06,-3.47e-06,0.0,0 STARLINK-4053,1 53536U 22101K   24089.47712232 -.00000347  00000-0 -36954-5 0  9997,2 53536  53.2190  12.3132 0001266  88.2567 271.8570 15.08861675 89089,6917.814,95.436,540.555,538.803,0.0
53536.0,STARLINK-4053,PAYLOAD,2024-03-29 19:24:00,15.08827365,0.0001599,53.219,10.826,94.4229,265.6945,4.9602e-05,5.01e-06,0.0,0 STARLINK-4053,1 53536U 22101K   24089.80834210  .00000501  00000-0  49602-4 0  9998,2 53536  53.2190  10.8260 0001599  94.4229 265.6945 15.08827365 89138,6917.919,95.438,540.89,538.678,0.0
